JILIN-1 GAOFEN 3A       
1 44312U 19032C   26197.86557403  .00006620  00000+0  21170-3 0  9999
2 44312  44.9726 193.5201 0004800 117.0409 243.0966 15.33211945392393
JILIN-1 GAOFEN 2A       
1 44777U 19075A   26197.83550191  .00007743  00000+0  19595-3 0  9990
2 44777  97.4962 282.3334 0005020 348.5819  11.5312 15.40039710369447
JILIN-1 GAOFEN 2B       
1 44836U 19086A   26197.82025270  .00003232  00000+0  14860-3 0  9991
2 44836  97.4871 269.6296 0013367 209.6941 150.3537 15.21009960364992
JILIN-1 GAOFEN 3E       
1 46457U 20065D   26197.81621531  .00051398  00000+0  47429-3 0  9995
2 46457  97.2204 251.1866 0009993  67.0225 293.2090 15.67389017324396
JILIN-1 GAOFEN 3F       
1 46458U 20065E   26197.83422088  .00039385  00000+0  41522-3 0  9994
2 46458  97.2162 248.3866 0011245  52.5153 307.7127 15.64077369324337
JILIN-1 GAOFEN 3G       
1 46459U 20065F   26197.83379391  .00087339  00000+0  53096-3 0  9994
2 46459  97.2220 255.7429 0005648 265.7906  94.2715 15.77213002324605
JILIN-1 GAOFEN 3H       
1 46460U 20065G   26197.81853069  .00068268  00000+0  51003-3 0  9999
2 46460  97.2166 251.8489 0006616 197.3534 162.7505 15.72484512324533
JILIN-1 GAOFEN 2D       
1 49256U 21086A   26197.83249766  .00002305  00000+0  14069-3 0  9995
2 49256  97.6511 320.5380 0033917  45.1811 315.2166 15.10872235265192
JILIN-1 GAOFEN 2F       
1 49338U 21097A   26197.83122941  .00002593  00000+0  17223-3 0  9997
2 49338  97.6737 323.9658 0019841 124.5742 235.7361 15.07955602260782
JILIN-1 GAOFEN 3D27     
1 52444U 22048B   26197.80896521  .00140046  00000+0  63539-3 0  9992
2 52444  97.5738 314.6181 0005450 240.8089 119.2635 15.83506405234158
JILIN-1 GAOFEN 3D28     
1 52445U 22048C   26197.86039019  .00183734  14244-4  66064-3 0  9997
2 52445  97.5664 314.9882 0005054 240.0974 119.9796 15.88715674234221
JILIN-1 GAOFEN 3D29     
1 52446U 22048D   26197.85686411  .00134401  00000+0  60407-3 0  9993
2 52446  97.5728 315.0373 0004476 223.9533 136.1381 15.83728205234183
JILIN-1 GAOFEN 3D31     
1 52448U 22048F   26197.81117961  .00271356  30767-4  71024-3 0  9996
2 52448  97.5714 316.3635 0005838 242.2230 117.8453 15.94867726234287
JILIN-1 GAOFEN 03D09    
1 53445U 22098B   26197.81332400  .00057099  00000+0  46586-3 0  9999
2 53445  97.5635 329.7996 0003519 227.6445 132.4519 15.70438064219275
JILIN-1 GAOFEN 03D43    
1 53448U 22098E   26197.84901594  .00067588  00000+0  46890-3 0  9993
2 53448  97.5622 331.0092 0003702 222.6990 137.3986 15.74249222219352
JILIN-1 GAOFEN 03D08    
1 54251U 22155A   26197.87479310  .00043202  00000+0  39516-3 0  9993
2 54251  97.6241 345.7261 0004347 222.0284 138.0643 15.67698297204465
