{"fetched_at":"2026-07-17T06:38:21.743Z","source":"https://celestrak.org/NORAD/elements/gp.php?NAME=JILIN&FORMAT=JSON","constellation":"jilin-1-gaofen","records":[{"OBJECT_NAME":"JILIN-1 GAOFEN 3A","OBJECT_ID":"2019-032C","EPOCH":"2026-07-16T20:46:25.596192","CLASSIFICATION_TYPE":"U","MEAN_MOTION":15.33211945,"ECCENTRICITY":0.00048,"INCLINATION":44.9726,"RA_OF_ASC_NODE":193.5201,"ARG_OF_PERICENTER":117.0409,"MEAN_ANOMALY":243.0966,"EPHEMERIS_TYPE":0,"NORAD_CAT_ID":44312,"ELEMENT_SET_NO":999,"REV_AT_EPOCH":39239,"BSTAR":0.0002117,"MEAN_MOTION_DOT":0.0000662,"MEAN_MOTION_DDOT":0},{"OBJECT_NAME":"JILIN-1 GAOFEN 2A","OBJECT_ID":"2019-075A","EPOCH":"2026-07-16T20:03:07.365024","CLASSIFICATION_TYPE":"U","MEAN_MOTION":15.4003971,"ECCENTRICITY":0.000502,"INCLINATION":97.4962,"RA_OF_ASC_NODE":282.3334,"ARG_OF_PERICENTER":348.5819,"MEAN_ANOMALY":11.5312,"EPHEMERIS_TYPE":0,"NORAD_CAT_ID":44777,"ELEMENT_SET_NO":999,"REV_AT_EPOCH":36944,"BSTAR":0.00019595,"MEAN_MOTION_DOT":0.00007743,"MEAN_MOTION_DDOT":0},{"OBJECT_NAME":"JILIN-1 GAOFEN 2B","OBJECT_ID":"2019-086A","EPOCH":"2026-07-16T19:41:09.833280","CLASSIFICATION_TYPE":"U","MEAN_MOTION":15.2100996,"ECCENTRICITY":0.0013367,"INCLINATION":97.4871,"RA_OF_ASC_NODE":269.6296,"ARG_OF_PERICENTER":209.6941,"MEAN_ANOMALY":150.3537,"EPHEMERIS_TYPE":0,"NORAD_CAT_ID":44836,"ELEMENT_SET_NO":999,"REV_AT_EPOCH":36499,"BSTAR":0.0001486,"MEAN_MOTION_DOT":0.00003232,"MEAN_MOTION_DDOT":0},{"OBJECT_NAME":"JILIN-1 GAOFEN 3E","OBJECT_ID":"2020-065D","EPOCH":"2026-07-16T19:35:21.002784","CLASSIFICATION_TYPE":"U","MEAN_MOTION":15.67389017,"ECCENTRICITY":0.0009993,"INCLINATION":97.2204,"RA_OF_ASC_NODE":251.1866,"ARG_OF_PERICENTER":67.0225,"MEAN_ANOMALY":293.209,"EPHEMERIS_TYPE":0,"NORAD_CAT_ID":46457,"ELEMENT_SET_NO":999,"REV_AT_EPOCH":32439,"BSTAR":0.00047429,"MEAN_MOTION_DOT":0.00051398,"MEAN_MOTION_DDOT":0},{"OBJECT_NAME":"JILIN-1 GAOFEN 3F","OBJECT_ID":"2020-065E","EPOCH":"2026-07-16T20:01:16.684032","CLASSIFICATION_TYPE":"U","MEAN_MOTION":15.64077369,"ECCENTRICITY":0.0011245,"INCLINATION":97.2162,"RA_OF_ASC_NODE":248.3866,"ARG_OF_PERICENTER":52.5153,"MEAN_ANOMALY":307.7127,"EPHEMERIS_TYPE":0,"NORAD_CAT_ID":46458,"ELEMENT_SET_NO":999,"REV_AT_EPOCH":32433,"BSTAR":0.00041522,"MEAN_MOTION_DOT":0.00039385,"MEAN_MOTION_DDOT":0},{"OBJECT_NAME":"JILIN-1 GAOFEN 3G","OBJECT_ID":"2020-065F","EPOCH":"2026-07-16T20:00:39.793824","CLASSIFICATION_TYPE":"U","MEAN_MOTION":15.77213002,"ECCENTRICITY":0.0005648,"INCLINATION":97.222,"RA_OF_ASC_NODE":255.7429,"ARG_OF_PERICENTER":265.7906,"MEAN_ANOMALY":94.2715,"EPHEMERIS_TYPE":0,"NORAD_CAT_ID":46459,"ELEMENT_SET_NO":999,"REV_AT_EPOCH":32460,"BSTAR":0.00053096,"MEAN_MOTION_DOT":0.00087339,"MEAN_MOTION_DDOT":0},{"OBJECT_NAME":"JILIN-1 GAOFEN 3H","OBJECT_ID":"2020-065G","EPOCH":"2026-07-16T19:38:41.051616","CLASSIFICATION_TYPE":"U","MEAN_MOTION":15.72484512,"ECCENTRICITY":0.0006616,"INCLINATION":97.2166,"RA_OF_ASC_NODE":251.8489,"ARG_OF_PERICENTER":197.3534,"MEAN_ANOMALY":162.7505,"EPHEMERIS_TYPE":0,"NORAD_CAT_ID":46460,"ELEMENT_SET_NO":999,"REV_AT_EPOCH":32453,"BSTAR":0.00051003,"MEAN_MOTION_DOT":0.00068268,"MEAN_MOTION_DDOT":0},{"OBJECT_NAME":"JILIN-1 GAOFEN 2D","OBJECT_ID":"2021-086A","EPOCH":"2026-07-16T19:58:47.797824","CLASSIFICATION_TYPE":"U","MEAN_MOTION":15.10872235,"ECCENTRICITY":0.0033917,"INCLINATION":97.6511,"RA_OF_ASC_NODE":320.538,"ARG_OF_PERICENTER":45.1811,"MEAN_ANOMALY":315.2166,"EPHEMERIS_TYPE":0,"NORAD_CAT_ID":49256,"ELEMENT_SET_NO":999,"REV_AT_EPOCH":26519,"BSTAR":0.00014069,"MEAN_MOTION_DOT":0.00002305,"MEAN_MOTION_DDOT":0},{"OBJECT_NAME":"JILIN-1 GAOFEN 2F","OBJECT_ID":"2021-097A","EPOCH":"2026-07-16T19:56:58.221024","CLASSIFICATION_TYPE":"U","MEAN_MOTION":15.07955602,"ECCENTRICITY":0.0019841,"INCLINATION":97.6737,"RA_OF_ASC_NODE":323.9658,"ARG_OF_PERICENTER":124.5742,"MEAN_ANOMALY":235.7361,"EPHEMERIS_TYPE":0,"NORAD_CAT_ID":49338,"ELEMENT_SET_NO":999,"REV_AT_EPOCH":26078,"BSTAR":0.00017223,"MEAN_MOTION_DOT":0.00002593,"MEAN_MOTION_DDOT":0},{"OBJECT_NAME":"JILIN-1 GAOFEN 3D27","OBJECT_ID":"2022-048B","EPOCH":"2026-07-16T19:24:54.594144","CLASSIFICATION_TYPE":"U","MEAN_MOTION":15.83506405,"ECCENTRICITY":0.000545,"INCLINATION":97.5738,"RA_OF_ASC_NODE":314.6181,"ARG_OF_PERICENTER":240.8089,"MEAN_ANOMALY":119.2635,"EPHEMERIS_TYPE":0,"NORAD_CAT_ID":52444,"ELEMENT_SET_NO":999,"REV_AT_EPOCH":23415,"BSTAR":0.00063539,"MEAN_MOTION_DOT":0.00140046,"MEAN_MOTION_DDOT":0},{"OBJECT_NAME":"JILIN-1 GAOFEN 3D28","OBJECT_ID":"2022-048C","EPOCH":"2026-07-16T20:38:57.712416","CLASSIFICATION_TYPE":"U","MEAN_MOTION":15.88715674,"ECCENTRICITY":0.0005054,"INCLINATION":97.5664,"RA_OF_ASC_NODE":314.9882,"ARG_OF_PERICENTER":240.0974,"MEAN_ANOMALY":119.9796,"EPHEMERIS_TYPE":0,"NORAD_CAT_ID":52445,"ELEMENT_SET_NO":999,"REV_AT_EPOCH":23422,"BSTAR":0.00066064,"MEAN_MOTION_DOT":0.00183734,"MEAN_MOTION_DDOT":0.000014244},{"OBJECT_NAME":"JILIN-1 GAOFEN 3D29","OBJECT_ID":"2022-048D","EPOCH":"2026-07-16T20:33:53.059104","CLASSIFICATION_TYPE":"U","MEAN_MOTION":15.83728205,"ECCENTRICITY":0.0004476,"INCLINATION":97.5728,"RA_OF_ASC_NODE":315.0373,"ARG_OF_PERICENTER":223.9533,"MEAN_ANOMALY":136.1381,"EPHEMERIS_TYPE":0,"NORAD_CAT_ID":52446,"ELEMENT_SET_NO":999,"REV_AT_EPOCH":23418,"BSTAR":0.00060407,"MEAN_MOTION_DOT":0.00134401,"MEAN_MOTION_DDOT":0},{"OBJECT_NAME":"JILIN-1 GAOFEN 3D31","OBJECT_ID":"2022-048F","EPOCH":"2026-07-16T19:28:05.918304","CLASSIFICATION_TYPE":"U","MEAN_MOTION":15.94867726,"ECCENTRICITY":0.0005838,"INCLINATION":97.5714,"RA_OF_ASC_NODE":316.3635,"ARG_OF_PERICENTER":242.223,"MEAN_ANOMALY":117.8453,"EPHEMERIS_TYPE":0,"NORAD_CAT_ID":52448,"ELEMENT_SET_NO":999,"REV_AT_EPOCH":23428,"BSTAR":0.00071024,"MEAN_MOTION_DOT":0.00271356,"MEAN_MOTION_DDOT":0.000030767},{"OBJECT_NAME":"JILIN-1 GAOFEN 03D09","OBJECT_ID":"2022-098B","EPOCH":"2026-07-16T19:31:11.193600","CLASSIFICATION_TYPE":"U","MEAN_MOTION":15.70438064,"ECCENTRICITY":0.0003519,"INCLINATION":97.5635,"RA_OF_ASC_NODE":329.7996,"ARG_OF_PERICENTER":227.6445,"MEAN_ANOMALY":132.4519,"EPHEMERIS_TYPE":0,"NORAD_CAT_ID":53445,"ELEMENT_SET_NO":999,"REV_AT_EPOCH":21927,"BSTAR":0.00046586,"MEAN_MOTION_DOT":0.00057099,"MEAN_MOTION_DDOT":0},{"OBJECT_NAME":"JILIN-1 GAOFEN 03D43","OBJECT_ID":"2022-098E","EPOCH":"2026-07-16T20:22:34.977216","CLASSIFICATION_TYPE":"U","MEAN_MOTION":15.74249222,"ECCENTRICITY":0.0003702,"INCLINATION":97.5622,"RA_OF_ASC_NODE":331.0092,"ARG_OF_PERICENTER":222.699,"MEAN_ANOMALY":137.3986,"EPHEMERIS_TYPE":0,"NORAD_CAT_ID":53448,"ELEMENT_SET_NO":999,"REV_AT_EPOCH":21935,"BSTAR":0.0004689,"MEAN_MOTION_DOT":0.00067588,"MEAN_MOTION_DDOT":0},{"OBJECT_NAME":"JILIN-1 GAOFEN 03D08","OBJECT_ID":"2022-155A","EPOCH":"2026-07-16T20:59:42.123840","CLASSIFICATION_TYPE":"U","MEAN_MOTION":15.67698297,"ECCENTRICITY":0.0004347,"INCLINATION":97.6241,"RA_OF_ASC_NODE":345.7261,"ARG_OF_PERICENTER":222.0284,"MEAN_ANOMALY":138.0643,"EPHEMERIS_TYPE":0,"NORAD_CAT_ID":54251,"ELEMENT_SET_NO":999,"REV_AT_EPOCH":20446,"BSTAR":0.00039516,"MEAN_MOTION_DOT":0.00043202,"MEAN_MOTION_DDOT":0}]}
